     2.11           G: GLONASS NAV DATA                     RINEX VERSION / TYPE
teqc  2019Feb25                         20220928 22:00:15UTCPGM / RUN BY / DATE
Linux2.6.32-573.12.1.el6.x86_64|x86_64|gcc|Win64-MinGW64|=+ COMMENT
                                                            END OF HEADER
 4 22  9 11 19 15  0.0 1.572445034981D-04 9.094947017729D-13 6.936000000000D+04
    2.381793750000D+04-1.502227783203D-02-1.862645149231D-09 0.000000000000D+00
    9.089429687500D+03-2.044057846069D-01 2.793967723846D-09 6.000000000000D+00
   -5.962416992188D+02-3.581785202026D+00 0.000000000000D+00 0.000000000000D+00
 5 22  9 11 19 15  0.0 9.948015213013D-05 9.094947017729D-13 6.936000000000D+04
    2.030329638672D+04 2.029373168945D+00-1.862645149231D-09 0.000000000000D+00
   -1.265488281250D+02 6.067438125610D-01 0.000000000000D+00 1.000000000000D+00
    1.542889257813D+04-2.668809890747D+00-1.862645149231D-09 0.000000000000D+00
 6 22  9 11 19 15  0.0-6.932299584150D-05-1.818989403546D-12 6.939000000000D+04
    2.096415039063D+03 2.980910301208D+00-9.313225746155D-10 0.000000000000D+00
   -1.091355712891D+04 1.003292083740D+00-2.793967723846D-09-4.000000000000D+00
    2.294502539063D+04 2.024221420288D-01-2.793967723846D-09 0.000000000000D+00
14 22  9 11 19 15  0.0 2.427026629448D-05 0.000000000000D+00 6.939000000000D+04
    1.591930175781D+03-2.262102127075D+00 0.000000000000D+00 0.000000000000D+00
    1.273938281250D+04 1.992578506470D+00 2.793967723846D-09-7.000000000000D+00
    2.205609130859D+04-9.901666641235D-01-2.793967723846D-09 0.000000000000D+00
15 22  9 11 19 15  0.0 9.377114474773D-05 0.000000000000D+00 6.936000000000D+04
    1.550986767578D+04-2.156768798828D+00-1.862645149231D-09 0.000000000000D+00
   -3.883920898438D+02 1.737842559814D+00 0.000000000000D+00 0.000000000000D+00
    2.027463916016D+04 1.684742927551D+00-2.793967723846D-09 0.000000000000D+00
23 22  9 11 19 15  0.0-5.456525832415D-05-9.094947017729D-13 6.936000000000D+04
   -8.426903320313D+03-3.914995193481D-01 9.313225746155D-10 0.000000000000D+00
    9.663358886719D+03-3.001380920410D+00 9.313225746155D-10 3.000000000000D+00
    2.204374023438D+04 1.164827346802D+00-2.793967723846D-09 0.000000000000D+00
24 22  9 11 19 15  0.0 1.140227541327D-04 2.728484105319D-12 6.981000000000D+04
   -1.995020996094D+03-1.027250289917D-01 9.313225746155D-10 0.000000000000D+00
    2.248400732422D+04-1.634041786194D+00 5.587935447693D-09 2.000000000000D+00
    1.192079589844D+04 3.066209793091D+00-1.862645149231D-09 0.000000000000D+00
23 22  9 11 19 45  0.0-5.456805229187D-05-9.094947017729D-13 7.020000000000D+04
   -9.587134765625D+03-8.939113616943D-01 9.313225746155D-10 0.000000000000D+00
    4.155690429688D+03-3.065221786499D+00-0.000000000000D+00 3.000000000000D+00
    2.326057958984D+04 1.784057617188D-01-2.793967723846D-09 0.000000000000D+00
 5 22  9 11 19 45  0.0 9.947735816240D-05 9.094947017729D-13 7.020000000000D+04
    2.341017675781D+04 1.384860038757D+00-1.862645149231D-09 0.000000000000D+00
    5.274526367188D+02 1.445293426514D-01 1.862645149231D-09 1.000000000000D+00
    1.009008349609D+04-3.224679946899D+00-9.313225746155D-10 0.000000000000D+00
15 22  9 11 19 45  0.0 9.377114474773D-05 0.000000000000D+00 7.020000000000D+04
    1.165272607422D+04-2.084601402283D+00-9.313225746155D-10 0.000000000000D+00
    3.226604003906D+03 2.255408287048D+00 9.313225746155D-10 0.000000000000D+00
    2.248646142578D+04 7.569599151611D-01-2.793967723846D-09 0.000000000000D+00
14 22  9 11 19 45  0.0 2.427119761705D-05 0.000000000000D+00 7.020000000000D+04
   -2.010375000000D+03-1.718659400940D+00 1.862645149231D-09 0.000000000000D+00
    1.639852490234D+04 2.028687477112D+00 3.725290298462D-09-7.000000000000D+00
    1.944535546875D+04-1.891929626465D+00-2.793967723846D-09 0.000000000000D+00
 6 22  9 11 19 45  0.0-6.932765245438D-05-1.818989403546D-12 7.020000000000D+04
    7.546147949219D+03 3.023764610291D+00-9.313225746155D-10 0.000000000000D+00
   -9.506357910156D+03 5.504856109619D-01-1.862645149231D-09-4.000000000000D+00
    2.241630371094D+04-7.861375808716D-01-2.793967723846D-09 0.000000000000D+00
24 22  9 11 19 45  0.0 1.140264794230D-04 2.728484105319D-12 7.026000000000D+04
   -2.555220214844D+03-5.436468124390D-01 1.862645149231D-09 0.000000000000D+00
    1.895247509766D+04-2.250711441040D+00 3.725290298462D-09 2.000000000000D+00
    1.690897509766D+04 2.440318107605D+00-2.793967723846D-09 0.000000000000D+00
23 22  9 11 20 15  0.0-5.457084625959D-05-9.094947017729D-13 7.200000000000D+04
   -1.159786816406D+04-1.318182945251D+00 0.000000000000D+00 0.000000000000D+00
   -1.185501953125D+03-2.820762634277D+00-1.862645149231D-09 3.000000000000D+00
    2.267761572266D+04-8.219556808472D-01-2.793967723846D-09 0.000000000000D+00
 5 22  9 11 20 15  0.0 9.947828948498D-05 9.094947017729D-13 7.200000000000D+04
    2.517894775391D+04 5.582666397095D-01-1.862645149231D-09 0.000000000000D+00
    5.057397460938D+02-1.322526931763D-01 2.793967723846D-09 1.000000000000D+00
    3.970117675781D+03-3.531077384949D+00-0.000000000000D+00 0.000000000000D+00
15 22  9 11 20 15  0.0 9.377207607031D-05 0.000000000000D+00 7.200000000000D+04
    8.148842285156D+03-1.774458885193D+00 0.000000000000D+00 0.000000000000D+00
    7.618519531250D+03 2.586290359497D+00 1.862645149231D-09 0.000000000000D+00
    2.296465087891D+04-2.290830612183D-01-2.793967723846D-09 0.000000000000D+00
24 22  9 11 20 15  0.0 1.140311360359D-04 2.728484105319D-12 7.200000000000D+04
   -4.009535644531D+03-1.079540252686D+00 1.862645149231D-09 0.000000000000D+00
    1.454133349609D+04-2.602315902710D+00 1.862645149231D-09 2.000000000000D+00
    2.059272802734D+04 1.626221656799D+00-2.793967723846D-09 0.000000000000D+00
 6 22  9 11 20 15  0.0-6.933137774467D-05-1.818989403546D-12 7.200000000000D+04
    1.279863769531D+04 2.762643814087D+00-1.862645149231D-09 0.000000000000D+00
   -8.934474609375D+03 9.319972991943D-02-0.000000000000D+00-4.000000000000D+00
    2.015135156250D+04-1.714149475098D+00-1.862645149231D-09 0.000000000000D+00
14 22  9 11 20 15  0.0 2.427119761705D-05 0.000000000000D+00 7.209000000000D+04
   -4.548826171875D+03-1.098138809204D+00 2.793967723846D-09 0.000000000000D+00
    1.987558740234D+04 1.787861824036D+00 2.793967723846D-09-7.000000000000D+00
    1.533272851563D+04-2.648091316223D+00-1.862645149231D-09 0.000000000000D+00
17 22  9 11 20 15  0.0 5.602957680821D-04 2.728484105319D-12 7.215000000000D+04
    7.174842285156D+03-2.195901870728D-01 1.862645149231D-09 0.000000000000D+00
    2.339849218750D+04-9.964990615845D-01 5.587935447693D-09 4.000000000000D+00
    7.286066406250D+03 3.414820671082D+00-9.313225746155D-10 0.000000000000D+00
 7 22  9 11 20 15  0.0 4.082638770342D-05 9.094947017729D-13 7.242000000000D+04
   -5.676227050781D+03 3.028120994568D+00-9.313225746155D-10 0.000000000000D+00
   -1.109061425781D+04 3.097276687622D-01-2.793967723846D-09 5.000000000000D+00
    2.229938134766D+04 9.214506149292D-01-2.793967723846D-09 0.000000000000D+00
 5 22  9 11 20 45  0.0 9.947922080755D-05 9.094947017729D-13 7.380000000000D+04
    2.537402783203D+04-3.444204330444D-01-9.313225746155D-10 0.000000000000D+00
    1.940371093750D+02-1.727066040039D-01 3.725290298462D-09 1.000000000000D+00
   -2.457308593750D+03-3.564050674438D+00 0.000000000000D+00 0.000000000000D+00
15 22  9 11 20 45  0.0 9.377300739288D-05 0.000000000000D+00 7.380000000000D+04
    5.361311035156D+03-1.304056167603D+00 9.313225746155D-10 0.000000000000D+00
    1.238086083984D+04 2.657859802246D+00 2.793967723846D-09 0.000000000000D+00
    2.167229931641D+04-1.197610855103D+00-2.793967723846D-09 0.000000000000D+00
 7 22  9 11 20 45  0.0 4.082825034857D-05 9.094947017729D-13 7.380000000000D+04
   -7.185449218750D+01 3.147841453552D+00-1.862645149231D-09 0.000000000000D+00
   -1.093349707031D+04-1.412277221680D-01-1.862645149231D-09 5.000000000000D+00
    2.307813769531D+04-6.188488006592D-02-2.793967723846D-09 0.000000000000D+00
24 22  9 11 20 45  0.0 1.140348613262D-04 2.728484105319D-12 7.380000000000D+04
   -6.434596191406D+03-1.603758811951D+00 9.313225746155D-10 0.000000000000D+00
    9.763394531250D+03-2.656733512878D+00-0.000000000000D+00 2.000000000000D+00
    2.268784472656D+04 6.865701675415D-01-2.793967723846D-09 0.000000000000D+00
 6 22  9 11 20 45  0.0-6.933510303497D-05-1.818989403546D-12 7.380000000000D+04
    1.732544628906D+04 2.225916862488D+00-1.862645149231D-09 0.000000000000D+00
   -9.110594726563D+03-2.643270492554D-01 9.313225746155D-10-4.000000000000D+00
    1.632513476563D+04-2.509557723999D+00-1.862645149231D-09 0.000000000000D+00
17 22  9 11 20 45  0.0 5.603022873402D-04 2.728484105319D-12 7.380000000000D+04
    6.280954589844D+03-7.957077026367D-01 2.793967723846D-09 0.000000000000D+00
    2.101457958984D+04-1.613677978516D+00 3.725290298462D-09 4.000000000000D+00
    1.307274169922D+04 2.973183631897D+00-1.862645149231D-09 0.000000000000D+00
 9 22  9 11 20 45  0.0 7.619243115187D-05 2.728484105319D-12 7.386000000000D+04
    1.389937548828D+04-5.359792709351D-01-2.793967723846D-09 0.000000000000D+00
   -2.013941455078D+04 8.535966873169D-01-9.313225746155D-10-2.000000000000D+00
    7.363860351563D+03 3.348857879639D+00-9.313225746155D-10 0.000000000000D+00
 9 22  9 11 21 15  0.0 7.619708776474D-05 2.728484105319D-12 7.560000000000D+04
    1.279257275391D+04-6.524724960327D-01-2.793967723846D-09 0.000000000000D+00
   -1.787547998047D+04 1.654355049133D+00 0.000000000000D+00-2.000000000000D+00
    1.303115185547D+04 2.907463073730D+00-1.862645149231D-09 0.000000000000D+00
17 22  9 11 21 15  0.0 5.603088065982D-04 2.728484105319D-12 7.560000000000D+04
    4.261548828125D+03-1.452454566956D+00 2.793967723846D-09 0.000000000000D+00
    1.774613085938D+04-1.970847129822D+00 2.793967723846D-09 4.000000000000D+00
    1.785156201172D+04 2.302195549011D+00-2.793967723846D-09 0.000000000000D+00
